IRIDIUM 119             
1 42959U 17061E   25161.53957080  .00000017  00000+0 -11399-5 0  9992
2 42959  86.3998 180.5612 0002379  95.7693 264.3774 14.34218906401542
IRIDIUM 107             
1 42960U 17061F   25159.46554030  .00000132  00000+0  40200-4 0  9990
2 42960  86.3996 181.4464 0002825  90.6409 269.5111 14.34219191401259
IRIDIUM 132             
1 42961U 17061G   25161.56493916  .00000124  00000+0  37294-4 0  9990
2 42961  86.3994 180.5520 0002452  90.0679 270.0798 14.34218373401552
IRIDIUM 136             
1 42962U 17061H   25161.52688434  .00000077  00000+0  20608-4 0  9996
2 42962  86.3995 180.5727 0002535  93.9438 266.2047 14.34217989401567
IRIDIUM 139             
1 42963U 17061J   25161.53322648  .00000101  00000+0  28964-4 0  9991
2 42963  86.3997 180.6260 0002598  89.0058 271.1435 14.34217942401572
IRIDIUM 125             
1 42964U 17061K   25161.52054277  .00000040  00000+0  72621-5 0  9993
2 42964  86.3998 180.6854 0002875  98.3590 261.7932 14.34217708401583
IRIDIUM 135             
1 43070U 17083A   25161.42489757  .00000025  00000+0  18663-5 0  9999
2 43070  86.3961 117.4454 0002113  82.1781 277.9655 14.34217849390869
IRIDIUM 138             
1 43071U 17083B   25161.58980576  .00000141  00000+0  43109-4 0  9993
2 43071  86.3950 117.0482 0002297  99.2082 260.9374 14.34218340390879
